HST                     
1 20580U 90037B   26121.84637811  .00007533  00000+0  24246-3 0  9992
2 20580  28.4762  37.1607 0001847 357.1115   2.9470 15.30234007781466
POLAR                   
1 23802U 96013A   26121.05325193  .00000031  00000+0  00000+0 0  9996
2 23802  79.8077 227.5990 6423177 210.6950  87.0184  1.29845840144246
SWAS                    
1 25560U 98071A   26121.89317266  .00003896  00000+0  25019-3 0  9992
2 25560  69.8974 346.8744 0007634 304.1320  55.9119 15.09301736490280
CXO                     
1 25867U 99040B   26124.41836994  .00000649  00000+0  00000+0 0  9996
2 25867  55.4609 117.9254 7906762 310.5237 359.9228  0.37801428 17151
XMM-NEWTON              
1 25989U 99066A   26123.47149006  .00000033  00000+0  00000+0 0  9992
2 25989  64.7152 283.5560 4687569  65.6998   0.1354  0.50130428 22771
TERRA                   
1 25994U 99068A   26121.88109278  .00000406  00000+0  91599-4 0  9992
2 25994  97.9494 173.2550 0002901  44.3768 128.7919 14.61065522402847
CLUSTER II-FM7 (SAMBA)  
1 26410U 00041A   26123.51430235  .00003227  00000+0  00000+0 0  9997
2 26410 149.7201  43.1034 8995935 259.7563   0.6740  0.44862034 20111
CLUSTER II-FM8 (TANGO)  
1 26464U 00045B   26121.13459255  .00002884  00000+0  00000+0 0  9997
2 26464 149.9674  43.7125 9000108 260.1784   0.5507  0.44400441 20080
ODIN                    
1 26702U 01007A   26121.85946322  .00080915  00000+0  85155-3 0  9995
2 26702  97.3949 160.2633 0000670 358.0010   2.1246 15.64036107382136
TIMED                   
1 26998U 01055B   26121.84193581  .00001241  00000+0  11653-3 0  9992
2 26998  74.0678 328.3293 0001504 203.1151 156.9966 14.95182041323893
CORIOLIS                
1 27640U 03001A   26121.54916272  .00000128  00000+0  80827-4 0  9990
2 27640  98.7141 129.1441 0013793 352.3247   7.7716 14.19931699207607
SORCE                   
1 27651U 03004A   26121.84503060  .00002996  00000+0  22649-3 0  9997
2 27651  39.9893 166.0238 0015960  78.6319 281.6267 15.03458026264924
MOST                    
1 27843U 03031D   26121.74930934  .00000081  00000+0  57218-4 0  9997
2 27843  98.7059 130.1213 0010437  32.4245 327.7572 14.21312682184118
SCISAT 1                
1 27858U 03036A   26121.83199131  .00000736  00000+0  98700-4 0  9992
2 27858  73.9293 263.4384 0007830 329.6118  30.4603 14.81395357224586
SWIFT                   
1 28485U 04047A   26121.81579155  .00046483  00000+0  45794-3 0  9991
2 28485  20.5517 181.3990 0002478  47.2181 312.8472 15.64121981179589
HINODE (SOLAR-B)        
1 29479U 06041A   26121.65024446  .00000852  00000+0  15481-3 0  9991
2 29479  98.0572 138.4864 0018916  77.1607 283.1710 14.68555129 48045
SHIJIAN-6 02A (SJ-6 02A)
1 29505U 06046A   26121.84233154  .00006750  00000+0  35082-3 0  9997
2 29505  97.6404 162.5702 0001747 325.7900  34.3220 15.16410999 65247
SHIJIAN-6 02B (SJ-6 02B)
1 29506U 06046B   26121.82452468  .00001916  00000+0  15373-3 0  9997
2 29506  97.7142 151.1731 0010964 217.7908 142.2547 15.01236934 63780
FGRST (GLAST)           
1 33053U 08029A   26121.80048792  .00003321  00000+0  12075-3 0  9999
2 33053  25.5806 166.5023 0008572 137.0230 223.0978 15.23695591988757
SDO                     
1 36395U 10005A   26121.41221787 -.00000059  00000+0  00000+0 0  9999
2 36395  34.5566  87.0466 0001029  27.9299 150.9756  1.00272970 59597
CRYOSAT 2               
1 36508U 10013A   26121.83609229  .00000229  00000+0  56227-4 0  9996
2 36508  92.0297 266.0495 0002667  91.1455 269.0058 14.51907842851354
X-SAT                   
1 37389U 11015C   26121.88973682  .00000126  00000+0  70833-4 0  9994
2 37389  98.3483 101.1264 0015033 116.0164 244.2567 14.25192257781085
GCOM-W1 (SHIZUKU)       
1 38337U 12025A   26121.74974853  .00000543  00000+0  13058-3 0  9994
2 38337  98.2000  63.0166 0001356  94.4674 328.9129 14.57126001742279
NUSTAR                  
1 38358U 12031A   26121.91668980  .00008454  00000+0  47424-3 0  9997
2 38358   6.0270  21.0890 0007540 146.1346 326.7173 15.08358785  5324
NEOSSAT                 
1 39089U 13009D   26121.72838696  .00000168  00000+0  72895-4 0  9992
2 39089  98.4168 302.8679 0011564  30.6926 329.4934 14.35810099690071
BRITE-AUSTRIA           
1 39091U 13009F   26121.47146933  .00000213  00000+0  87095-4 0  9992
2 39091  98.3984 302.0659 0010650  26.2077 333.9646 14.36523169690342
IRIS                    
1 39197U 13033A   26121.83270777  .00001127  00000+0  13529-3 0  9995
2 39197  97.9363 321.2508 0025829 109.6051 250.7956 14.85787852693497
HISAKI (SPRINT-A)       
1 39253U 13049A   26121.58263682  .00000133  00000+0  94247-4 0  9997
2 39253  29.7192  96.9467 0136595 359.0595   0.9709 13.55538732625099
CASSIOPE                
1 39265U 13055A   26121.78839595  .00026554 -44731-6  30764-3 0  9996
2 39265  80.9126 122.9115 0302488 218.0456 139.9073 15.22036708660609
STSAT-3                 
1 39422U 13066G   26121.83073388  .00003275  00000+0  25109-3 0  9994
2 39422  97.6181  92.5000 0009435 173.0501 187.0857 15.02483462677245
SWARM B                 
1 39451U 13067A   26121.90977625  .00003489  00000+0  12548-3 0  9992
2 39451  87.7473 356.3713 0002470  96.3786 263.7745 15.28278434676175
SWARM A                 
1 39452U 13067B   26121.81354234  .00014385  00000+0  25607-3 0  9995
2 39452  87.3321  73.4500 0003637  88.6414 271.5264 15.49993707699069
SWARM C                 
1 39453U 13067C   26121.81347637  .00014326  00000+0  25500-3 0  9992
2 39453  87.3322  72.0314 0003638  88.4934 271.6743 15.49995384699027
BRITE-CA1 (TORONTO)     
1 40020U 14033L   26121.83473278  .00000977  00000+0  15391-3 0  9995
2 40020  97.9668 251.6376 0079918  65.8277 295.1260 14.72609739635391
OCO 2                   
1 40059U 14035A   26121.80287104  .00000483  00000+0  11731-3 0  9993
2 40059  98.1996  63.8108 0001305  86.1347 274.0001 14.57071669629294
BRITE-PL2 (HEWELIUSZ)   
1 40119U 14049B   26121.84069139  .00002212  00000+0  21059-3 0  9991
2 40119  97.9040 233.5033 0012739 262.0272  97.9502 14.94417160634527
MMS 1                   
1 40482U 15011A   26121.91668980 -.00000494  00000+0  00000+0 0  9991
2 40482  71.5455 349.4259 8364266 166.4214 258.5132  0.28371590  1374
MMS 2                   
1 40483U 15011B   26121.91668980 -.00000494  00000+0  00000+0 0  9992
2 40483  71.5456 349.4281 8365020 166.4298 258.4881  0.28374221  1376
MMS 3                   
1 40484U 15011C   26121.91668980 -.00000494  00000+0  00000+0 0  9993
2 40484  71.5484 349.4327 8364248 166.4241 258.4894  0.28374181  1377
MMS 4                   
1 40485U 15011D   26121.91668980 -.00000494  00000+0  00000+0 0  9994
2 40485  71.5454 349.4282 8363805 166.4317 258.4771  0.28374165  1373
ASTROSAT                
1 40930U 15052A   26121.87328382  .00001725  00000+0  12859-3 0  9994
2 40930   5.9961 128.6920 0007438  93.8805 266.2173 14.82425599572944
DAMPE                   
1 41173U 15078A   26121.82055765  .00000915  00000+0  33464-4 0  9995
2 41173  97.4565 127.0623 0010363 237.2544 122.7699 15.30665833577459
PISAT                   
1 41784U 16059B   26121.75606229  .00001146  00000+0  20286-3 0  9996
2 41784  97.8185 124.2068 0028929 357.0231   3.0799 14.68899382512923
HXMT (HUIYAN)           
1 42758U 17034A   26121.88518115  .00005362  00000+0  26660-3 0  9998
2 42758  43.0138  80.7752 0032338 213.5790 146.3009 15.18048950490627
FLYING LAPTOP           
1 42831U 17042G   26121.85351279  .00006544  00000+0  51729-3 0  9999
2 42831  97.4477 279.2384 0017813 282.5905  77.3328 15.00852131479505
ZHANGHENG 1-01 (CSES-1) 
1 43194U 18015C   26121.81897352  .00009401  00000+0  42836-3 0  9990
2 43194  97.6830 286.5644 0017714  67.3117 292.9989 15.20753553457590
SALSAT                  
1 46495U 20068K   26121.56290308  .00009759  00000+0  34759-3 0  9999
2 46495  97.8855 121.8158 0011683 104.4237 255.8298 15.29104891308233
IXPE                    
1 49954U 21121A   26121.83336806  .00014093  00000+0  78925-3 0  9997
2 49954   0.2308 307.9537 0007405  98.9263 251.4955 15.09817154  5662
